start=new Date('2023-04-16T00:00:00.000Z').valueOf();
sats=[{"COUNTRY_CODE":"US","ARG_OF_PERICENTER":"110.4814","PERIOD":"95.437","OBJECT_ID":"2021-115AB","DECAY_DATE":null,"NORAD_CAT_ID":"49749","LAUNCH_DATE":"2021-12-02","CENTER_NAME":"EARTH","ECCENTRICITY":"0.00011310","RCS_SIZE":"LARGE","MEAN_MOTION":"15.08847680","TLE_LINE2":"2 49749  53.2162 222.9815 0001131 110.4814 249.6299 15.08847680 75660","REV_AT_EPOCH":"7566","EPHEMERIS_TYPE":"0","TLE_LINE1":"1 49749U 21115AB  23105.72821568  .00004871  00000-0  32384-3 0  9996","APOAPSIS":"540.504","INCLINATION":"53.2162","PERIAPSIS":"538.940","ELEMENT_SET_NO":"999","REF_FRAME":"TEME","MEAN_MOTION_DOT":"0.00004871","MEAN_MOTION_DDOT":"0.0000000000000","BSTAR":"0.00032384000000","RA_OF_ASC_NODE":"222.9815","MEAN_ELEMENT_THEORY":"SGP4","SITE":"AFETR","CLASSIFICATION_TYPE":"U","GP_ID":"230128767","OBJECT_TYPE":"PAYLOAD","FILE":"3888171","TIME_SYSTEM":"UTC","MEAN_ANOMALY":"249.6299","SEMIMAJOR_AXIS":"6917.857","OBJECT_NAME":"STARLINK-3250","EPOCH":"2023-04-15T17:28:37.834752"},{"SITE":"AFETR","MEAN_ELEMENT_THEORY":"SGP4","RA_OF_ASC_NODE":"222.9047","BSTAR":"0.00047497000000","MEAN_MOTION_DOT":"0.00007284","MEAN_MOTION_DDOT":"0.0000000000000","ELEMENT_SET_NO":"999","REF_FRAME":"TEME","PERIAPSIS":"538.876","EPOCH":"2023-04-15T17:56:29.679936","OBJECT_NAME":"STARLINK-3236","SEMIMAJOR_AXIS":"6917.808","MEAN_ANOMALY":"261.0099","TIME_SYSTEM":"UTC","FILE":"3888171","OBJECT_TYPE":"PAYLOAD","GP_ID":"230129516","CLASSIFICATION_TYPE":"U","RCS_SIZE":"LARGE","CENTER_NAME":"EARTH","LAUNCH_DATE":"2021-12-02","ECCENTRICITY":"0.00011530","NORAD_CAT_ID":"49750","DECAY_DATE":null,"OBJECT_ID":"2021-115AC","PERIOD":"95.436","ARG_OF_PERICENTER":"99.1024","COUNTRY_CODE":"US","INCLINATION":"53.2169","TLE_LINE1":"1 49750U 21115AC  23105.74756574  .00007284  00000-0  47497-3 0  9996","EPHEMERIS_TYPE":"0","APOAPSIS":"540.471","REV_AT_EPOCH":"7567","TLE_LINE2":"2 49750  53.2169 222.9047 0001153  99.1024 261.0099 15.08863624 75679","MEAN_MOTION":"15.08863624"},{"COUNTRY_CODE":"US","OBJECT_ID":"2021-115AD","PERIOD":"95.436","ARG_OF_PERICENTER":"93.2837","LAUNCH_DATE":"2021-12-02","ECCENTRICITY":"0.00009670","CENTER_NAME":"EARTH","RCS_SIZE":"LARGE","NORAD_CAT_ID":"49751","DECAY_DATE":null,"TLE_LINE2":"2 49751  53.2157 222.9296 0000967  93.2837 266.8266 15.08857724 75675","MEAN_MOTION":"15.08857724","REV_AT_EPOCH":"7567","INCLINATION":"53.2157","APOAPSIS":"540.360","TLE_LINE1":"1 49751U 21115AD  23105.73284333  .00005293  00000-0  35019-3 0  9990","EPHEMERIS_TYPE":"0","PERIAPSIS":"539.022","REF_FRAME":"TEME","ELEMENT_SET_NO":"999","MEAN_ELEMENT_THEORY":"SGP4","SITE":"AFETR","BSTAR":"0.00035019000000","MEAN_MOTION_DOT":"0.00005293","MEAN_MOTION_DDOT":"0.0000000000000","RA_OF_ASC_NODE":"222.9296","TIME_SYSTEM":"UTC","FILE":"3888171","OBJECT_TYPE":"PAYLOAD","GP_ID":"230129768","CLASSIFICATION_TYPE":"U","EPOCH":"2023-04-15T17:35:17.663712","SEMIMAJOR_AXIS":"6917.826","MEAN_ANOMALY":"266.8266","OBJECT_NAME":"STARLINK-3229"},{"COUNTRY_CODE":"US","PERIOD":"95.437","OBJECT_ID":"2021-115AE","ARG_OF_PERICENTER":"115.8662","LAUNCH_DATE":"2021-12-02","ECCENTRICITY":"0.00012820","CENTER_NAME":"EARTH","RCS_SIZE":"LARGE","DECAY_DATE":null,"NORAD_CAT_ID":"49752","TLE_LINE2":"2 49752  53.2165 212.8205 0001282 115.8662 244.2462 15.08852229 75810","MEAN_MOTION":"15.08852229","REV_AT_EPOCH":"7581","INCLINATION":"53.2165","EPHEMERIS_TYPE":"0","TLE_LINE1":"1 49752U 21115AE  23105.76225128  .00001027  00000-0  82585-4 0  9993","APOAPSIS":"540.595","PERIAPSIS":"538.821","REF_FRAME":"TEME","ELEMENT_SET_NO":"999","MEAN_ELEMENT_THEORY":"SGP4","SITE":"AFETR","BSTAR":"0.00008258500000","MEAN_MOTION_DDOT":"0.0000000000000","MEAN_MOTION_DOT":"0.00001027","RA_OF_ASC_NODE":"212.8205","TIME_SYSTEM":"UTC","OBJECT_TYPE":"PAYLOAD","FILE":"3888171","GP_ID":"230130015","CLASSIFICATION_TYPE":"U","EPOCH":"2023-04-15T18:17:38.510592","MEAN_ANOMALY":"244.2462","SEMIMAJOR_AXIS":"6917.843","OBJECT_NAME":"STARLINK-3209"},{"ELEMENT_SET_NO":"999","REF_FRAME":"TEME","PERIAPSIS":"538.922","RA_OF_ASC_NODE":"222.9122","BSTAR":"0.00013497000000","MEAN_MOTION_DOT":"0.00001861","MEAN_MOTION_DDOT":"0.0000000000000","SITE":"AFETR","MEAN_ELEMENT_THEORY":"SGP4","GP_ID":"230129267","CLASSIFICATION_TYPE":"U","TIME_SYSTEM":"UTC","OBJECT_TYPE":"PAYLOAD","FILE":"3888171","OBJECT_NAME":"STARLINK-3200","SEMIMAJOR_AXIS":"6917.849","MEAN_ANOMALY":"249.6497","EPOCH":"2023-04-15T17:49:49.213344","PERIOD":"95.437","OBJECT_ID":"2021-115AF","ARG_OF_PERICENTER":"110.4619","COUNTRY_CODE":"US","DECAY_DATE":null,"NORAD_CAT_ID":"49753","RCS_SIZE":"LARGE","ECCENTRICITY":"0.00011440","LAUNCH_DATE":"2021-12-02","CENTER_NAME":"EARTH","MEAN_MOTION":"15.08850375","TLE_LINE2":"2 49753  53.2148 222.9122 0001144 110.4619 249.6497 15.08850375 75673","INCLINATION":"53.2148","TLE_LINE1":"1 49753U 21115AF  23105.74293071  .00001861  00000-0  13497-3 0  9995","EPHEMERIS_TYPE":"0","APOAPSIS":"540.505","REV_AT_EPOCH":"7567"},{"ARG_OF_PERICENTER":"82.2905","PERIOD":"95.437","OBJECT_ID":"2021-115AG","COUNTRY_CODE":"US","RCS_SIZE":"LARGE","LAUNCH_DATE":"2021-12-02","CENTER_NAME":"EARTH","ECCENTRICITY":"0.00015140","DECAY_DATE":null,"NORAD_CAT_ID":"49754","TLE_LINE2":"2 49754  53.2132 213.2140 0001514  82.2905 277.8259 15.08853679 75809","MEAN_MOTION":"15.08853679","TLE_LINE1":"1 49754U 21115AG  23105.69970449  .00009267  00000-0  59935-3 0  9996","EPHEMERIS_TYPE":"0","APOAPSIS":"540.751","INCLINATION":"53.2132","REV_AT_EPOCH":"7580","REF_FRAME":"TEME","ELEMENT_SET_NO":"999","PERIAPSIS":"538.656","SITE":"AFETR","MEAN_ELEMENT_THEORY":"SGP4","RA_OF_ASC_NODE":"213.2140","MEAN_MOTION_DOT":"0.00009267","MEAN_MOTION_DDOT":"0.0000000000000","BSTAR":"0.00059935000000","OBJECT_TYPE":"PAYLOAD","FILE":"3888171","TIME_SYSTEM":"UTC","CLASSIFICATION_TYPE":"U","GP_ID":"230129017","EPOCH":"2023-04-15T16:47:34.467936","OBJECT_NAME":"STARLINK-3193","MEAN_ANOMALY":"277.8259","SEMIMAJOR_AXIS":"6917.839"},{"PERIAPSIS":"538.893","REF_FRAME":"TEME","ELEMENT_SET_NO":"999","MEAN_ELEMENT_THEORY":"SGP4","SITE":"AFETR","MEAN_MOTION_DDOT":"0.0000000000000","MEAN_MOTION_DOT":"0.00035987","BSTAR":"0.00226500000000","RA_OF_ASC_NODE":"223.4787","OBJECT_TYPE":"PAYLOAD","FILE":"3888171","TIME_SYSTEM":"UTC","CLASSIFICATION_TYPE":"U","GP_ID":"230130268","EPOCH":"2023-04-15T14:49:38.628480","SEMIMAJOR_AXIS":"6917.748","MEAN_ANOMALY":"256.8483","OBJECT_NAME":"STARLINK-3210","COUNTRY_CODE":"US","ARG_OF_PERICENTER":"103.2625","PERIOD":"95.435","OBJECT_ID":"2021-115AH","LAUNCH_DATE":"2021-12-02","CENTER_NAME":"EARTH","ECCENTRICITY":"0.00010410","RCS_SIZE":"LARGE","NORAD_CAT_ID":"49755","DECAY_DATE":null,"TLE_LINE2":"2 49755  53.2166 223.4787 0001041 103.2625 256.8483 15.08883392 75659","MEAN_MOTION":"15.08883392","REV_AT_EPOCH":"7565","APOAPSIS":"540.333","TLE_LINE1":"1 49755U 21115AH  23105.61780820  .00035987  00000-0  22650-2 0  9992","EPHEMERIS_TYPE":"0","INCLINATION":"53.2166"},{"ELEMENT_SET_NO":"999","REF_FRAME":"TEME","PERIAPSIS":"538.909","RA_OF_ASC_NODE":"212.7806","MEAN_MOTION_DOT":"0.00003402","MEAN_MOTION_DDOT":"0.0000000000000","BSTAR":"0.00023171000000","SITE":"AFETR","MEAN_ELEMENT_THEORY":"SGP4","CLASSIFICATION_TYPE":"U","GP_ID":"230130515","FILE":"3888171","OBJECT_TYPE":"PAYLOAD","TIME_SYSTEM":"UTC","OBJECT_NAME":"STARLINK-3207","MEAN_ANOMALY":"283.1601","SEMIMAJOR_AXIS":"6917.865","EPOCH":"2023-04-15T18:33:33.347232","ARG_OF_PERICENTER":"76.9524","PERIOD":"95.437","OBJECT_ID":"2021-115AJ","COUNTRY_CODE":"US","DECAY_DATE":null,"NORAD_CAT_ID":"49756","RCS_SIZE":"LARGE","ECCENTRICITY":"0.00011860","LAUNCH_DATE":"2021-12-02","CENTER_NAME":"EARTH","MEAN_MOTION":"15.08845131","TLE_LINE2":"2 49756  53.2163 212.7806 0001186  76.9524 283.1601 15.08845131 75816","APOAPSIS":"540.550","TLE_LINE1":"1 49756U 21115AJ  23105.77330263  .00003402  00000-0  23171-3 0  9999","EPHEMERIS_TYPE":"0","INCLINATION":"53.2163","REV_AT_EPOCH":"7581"},{"TLE_LINE2":"2 49757  53.2155 213.1147 0000953 100.9462 259.1638 15.08861549 75804","MEAN_MOTION":"15.08861549","INCLINATION":"53.2155","TLE_LINE1":"1 49757U 21115AK  23105.70064373  .00004029  00000-0  27094-3 0  9993","EPHEMERIS_TYPE":"0","APOAPSIS":"540.339","REV_AT_EPOCH":"7580","OBJECT_ID":"2021-115AK","PERIOD":"95.436","ARG_OF_PERICENTER":"100.9462","COUNTRY_CODE":"US","RCS_SIZE":"LARGE","CENTER_NAME":"EARTH","LAUNCH_DATE":"2021-12-02","ECCENTRICITY":"0.00009530","NORAD_CAT_ID":"49757","DECAY_DATE":null,"TIME_SYSTEM":"UTC","OBJECT_TYPE":"PAYLOAD","FILE":"3888171","GP_ID":"230128768","CLASSIFICATION_TYPE":"U","EPOCH":"2023-04-15T16:48:55.618272","OBJECT_NAME":"STARLINK-3197","SEMIMAJOR_AXIS":"6917.815","MEAN_ANOMALY":"259.1638","ELEMENT_SET_NO":"999","REF_FRAME":"TEME","PERIAPSIS":"539.020","SITE":"AFETR","MEAN_ELEMENT_THEORY":"SGP4","RA_OF_ASC_NODE":"213.1147","BSTAR":"0.00027094000000","MEAN_MOTION_DDOT":"0.0000000000000","MEAN_MOTION_DOT":"0.00004029"},{"MEAN_ELEMENT_THEORY":"SGP4","SITE":"AFETR","MEAN_MOTION_DDOT":"0.0000000000000","MEAN_MOTION_DOT":"0.00005788","BSTAR":"0.00038129000000","RA_OF_ASC_NODE":"213.0438","PERIAPSIS":"538.925","ELEMENT_SET_NO":"999","REF_FRAME":"TEME","EPOCH":"2023-04-15T17:08:45.049920","SEMIMAJOR_AXIS":"6917.836","MEAN_ANOMALY":"244.8277","OBJECT_NAME":"STARLINK-3194","FILE":"3888171","OBJECT_TYPE":"PAYLOAD","TIME_SYSTEM":"UTC","CLASSIFICATION_TYPE":"U","GP_ID":"230129517","CENTER_NAME":"EARTH","LAUNCH_DATE":"2021-12-02","ECCENTRICITY":"0.00011220","RCS_SIZE":"LARGE","DECAY_DATE":null,"NORAD_CAT_ID":"49758","COUNTRY_CODE":"US","ARG_OF_PERICENTER":"115.2831","OBJECT_ID":"2021-115AL","PERIOD":"95.437","REV_AT_EPOCH":"7580","TLE_LINE1":"1 49758U 21115AL  23105.71441030  .00005788  00000-0  38129-3 0  9998","EPHEMERIS_TYPE":"0","APOAPSIS":"540.477","INCLINATION":"53.2139","TLE_LINE2":"2 49758  53.2139 213.0438 0001122 115.2831 244.8277 15.08854591 75806","MEAN_MOTION":"15.08854591"}];
